MMSATS-1                
1 47976U 98067SJ  22251.89558398  .00029686  00000+0  33094-3 0  9992
2 47976  51.6402 264.8199 0002217   9.5412  60.1354 15.62555936 83293
RAMSAT                  
1 48850U 98067SL  22251.47281520  .00199509  00000+0  76397-3 0  9993
2 48850  51.6328 249.2663 0005860  47.9250 312.2251 15.86318481 70435
BD-28                   
1 48867U 98067SN  22251.82480675  .00911417  47834-3  97872-3 0  9993
2 48867  51.6165 239.3452 0004768  65.1354 295.0155 16.09460224 69349
BINAR-1                 
1 49272U 98067SR  22251.47714790  .00312161  47495-4  96527-3 0  9994
2 49272  51.6248 252.2066 0005042  38.6530 321.4836 15.91186903 52783
CSS (TIANHE)            
1 48274U 21035A   22251.53859358  .00024326  00000+0  27065-3 0  9993
2 48274  41.4714  71.1606 0006556 278.6292 118.0256 15.62270002 77807
ISS DEB                 
1 48833U 98067SK  22251.39151885  .00069999  00000+0  51008-3 0  9996
2 48833  51.6327 260.0336 0003405  28.7067 331.4119 15.72640276 72173
ISS (NAUKA)             
1 49044U 21066A   22251.51112429  .00007523  00000+0  13918-3 0  9994
2 49044  51.6441 283.7868 0002647 207.1553 316.3696 15.50098625358100
CAPSAT                  
1 49276U 98067SV  22251.71544087  .00667774  21710-3  11529-2 0  9997
2 49276  51.6290 249.3129 0005407  45.2087 314.9363 16.01729326 51906
1998-067TD              
1 51441U 98067TD  22251.84994645  .00089116  00000+0  68545-3 0  9991
2 51441  51.6334 266.1159 0002401 138.6614 221.4566 15.71264946 35240
PATCOOL                 
1 51442U 98067TE  22251.61739176  .00093172  00000+0  70103-3 0  9993
2 51442  51.6314 266.7840 0002130 145.4356 214.6781 15.71770695 35178
PROGRESS-MS 19          
1 51660U 22014A   22251.51112429  .00007523  00000+0  13918-3 0  9995
2 51660  51.6441 283.7868 0002647 207.1553 316.3696 15.50098625358107
SOYUZ-MS 21             
1 52086U 22028A   22251.51112429  .00007523  00000+0  13918-3 0  9993
2 52086  51.6441 283.7868 0002647 207.1553 316.3696 15.50098625358100
