[{
    "OBJECT_NAME": "MMSATS-1",
    "OBJECT_ID": "1998-067SJ",
    "EPOCH": "2022-09-08T21:29:38.455872",
    "MEAN_MOTION": 15.62555936,
    "ECCENTRICITY": 0.0002217,
    "INCLINATION": 51.6402,
    "RA_OF_ASC_NODE": 264.8199,
    "ARG_OF_PERICENTER": 9.5412,
    "MEAN_ANOMALY": 60.1354,
    "EPHEMERIS_TYPE": 0,
    "CLASSIFICATION_TYPE": "U",
    "NORAD_CAT_ID": 47976,
    "ELEMENT_SET_NO": 999,
    "REV_AT_EPOCH": 8329,
    "BSTAR": 0.00033094,
    "MEAN_MOTION_DOT": 0.00029686,
    "MEAN_MOTION_DDOT": 0
},{
    "OBJECT_NAME": "CSS (TIANHE)",
    "OBJECT_ID": "2021-035A",
    "EPOCH": "2022-09-08T12:55:34.485312",
    "MEAN_MOTION": 15.62270002,
    "ECCENTRICITY": 0.0006556,
    "INCLINATION": 41.4714,
    "RA_OF_ASC_NODE": 71.1606,
    "ARG_OF_PERICENTER": 278.6292,
    "MEAN_ANOMALY": 118.0256,
    "EPHEMERIS_TYPE": 0,
    "CLASSIFICATION_TYPE": "U",
    "NORAD_CAT_ID": 48274,
    "ELEMENT_SET_NO": 999,
    "REV_AT_EPOCH": 7780,
    "BSTAR": 0.00027065,
    "MEAN_MOTION_DOT": 0.00024326,
    "MEAN_MOTION_DDOT": 0
},{
    "OBJECT_NAME": "ISS DEB",
    "OBJECT_ID": "1998-067SK",
    "EPOCH": "2022-09-08T09:23:47.228640",
    "MEAN_MOTION": 15.72640276,
    "ECCENTRICITY": 0.0003405,
    "INCLINATION": 51.6327,
    "RA_OF_ASC_NODE": 260.0336,
    "ARG_OF_PERICENTER": 28.7067,
    "MEAN_ANOMALY": 331.4119,
    "EPHEMERIS_TYPE": 0,
    "CLASSIFICATION_TYPE": "U",
    "NORAD_CAT_ID": 48833,
    "ELEMENT_SET_NO": 999,
    "REV_AT_EPOCH": 7217,
    "BSTAR": 0.00051008,
    "MEAN_MOTION_DOT": 0.00069999,
    "MEAN_MOTION_DDOT": 0
},{
    "OBJECT_NAME": "RAMSAT",
    "OBJECT_ID": "1998-067SL",
    "EPOCH": "2022-09-08T11:20:51.233280",
    "MEAN_MOTION": 15.86318481,
    "ECCENTRICITY": 0.000586,
    "INCLINATION": 51.6328,
    "RA_OF_ASC_NODE": 249.2663,
    "ARG_OF_PERICENTER": 47.925,
    "MEAN_ANOMALY": 312.2251,
    "EPHEMERIS_TYPE": 0,
    "CLASSIFICATION_TYPE": "U",
    "NORAD_CAT_ID": 48850,
    "ELEMENT_SET_NO": 999,
    "REV_AT_EPOCH": 7043,
    "BSTAR": 0.00076397,
    "MEAN_MOTION_DOT": 0.00199509,
    "MEAN_MOTION_DDOT": 0
},{
    "OBJECT_NAME": "BD-28",
    "OBJECT_ID": "1998-067SN",
    "EPOCH": "2022-09-08T19:47:43.303200",
    "MEAN_MOTION": 16.09460224,
    "ECCENTRICITY": 0.0004768,
    "INCLINATION": 51.6165,
    "RA_OF_ASC_NODE": 239.3452,
    "ARG_OF_PERICENTER": 65.1354,
    "MEAN_ANOMALY": 295.0155,
    "EPHEMERIS_TYPE": 0,
    "CLASSIFICATION_TYPE": "U",
    "NORAD_CAT_ID": 48867,
    "ELEMENT_SET_NO": 999,
    "REV_AT_EPOCH": 6934,
    "BSTAR": 0.00097872,
    "MEAN_MOTION_DOT": 0.00911417,
    "MEAN_MOTION_DDOT": 0.00047834
},{
    "OBJECT_NAME": "ISS (NAUKA)",
    "OBJECT_ID": "2021-066A",
    "EPOCH": "2022-09-08T12:16:01.138656",
    "MEAN_MOTION": 15.50098625,
    "ECCENTRICITY": 0.0002647,
    "INCLINATION": 51.6441,
    "RA_OF_ASC_NODE": 283.7868,
    "ARG_OF_PERICENTER": 207.1553,
    "MEAN_ANOMALY": 316.3696,
    "EPHEMERIS_TYPE": 0,
    "CLASSIFICATION_TYPE": "U",
    "NORAD_CAT_ID": 49044,
    "ELEMENT_SET_NO": 999,
    "REV_AT_EPOCH": 35810,
    "BSTAR": 0.00013918,
    "MEAN_MOTION_DOT": 7.523e-5,
    "MEAN_MOTION_DDOT": 0
},{
    "OBJECT_NAME": "BINAR-1",
    "OBJECT_ID": "1998-067SR",
    "EPOCH": "2022-09-08T11:27:05.578560",
    "MEAN_MOTION": 15.91186903,
    "ECCENTRICITY": 0.0005042,
    "INCLINATION": 51.6248,
    "RA_OF_ASC_NODE": 252.2066,
    "ARG_OF_PERICENTER": 38.653,
    "MEAN_ANOMALY": 321.4836,
    "EPHEMERIS_TYPE": 0,
    "CLASSIFICATION_TYPE": "U",
    "NORAD_CAT_ID": 49272,
    "ELEMENT_SET_NO": 999,
    "REV_AT_EPOCH": 5278,
    "BSTAR": 0.00096527,
    "MEAN_MOTION_DOT": 0.00312161,
    "MEAN_MOTION_DDOT": 4.7495e-5
},{
    "OBJECT_NAME": "CAPSAT",
    "OBJECT_ID": "1998-067SV",
    "EPOCH": "2022-09-08T17:10:14.091168",
    "MEAN_MOTION": 16.01729326,
    "ECCENTRICITY": 0.0005407,
    "INCLINATION": 51.629,
    "RA_OF_ASC_NODE": 249.3129,
    "ARG_OF_PERICENTER": 45.2087,
    "MEAN_ANOMALY": 314.9363,
    "EPHEMERIS_TYPE": 0,
    "CLASSIFICATION_TYPE": "U",
    "NORAD_CAT_ID": 49276,
    "ELEMENT_SET_NO": 999,
    "REV_AT_EPOCH": 5190,
    "BSTAR": 0.0011529,
    "MEAN_MOTION_DOT": 0.00667774,
    "MEAN_MOTION_DDOT": 0.0002171
},{
    "OBJECT_NAME": "1998-067TD",
    "OBJECT_ID": "1998-067TD",
    "EPOCH": "2022-09-08T20:23:55.373280",
    "MEAN_MOTION": 15.71264946,
    "ECCENTRICITY": 0.0002401,
    "INCLINATION": 51.6334,
    "RA_OF_ASC_NODE": 266.1159,
    "ARG_OF_PERICENTER": 138.6614,
    "MEAN_ANOMALY": 221.4566,
    "EPHEMERIS_TYPE": 0,
    "CLASSIFICATION_TYPE": "U",
    "NORAD_CAT_ID": 51441,
    "ELEMENT_SET_NO": 999,
    "REV_AT_EPOCH": 3524,
    "BSTAR": 0.00068545,
    "MEAN_MOTION_DOT": 0.00089116,
    "MEAN_MOTION_DDOT": 0
},{
    "OBJECT_NAME": "PATCOOL",
    "OBJECT_ID": "1998-067TE",
    "EPOCH": "2022-09-08T14:49:02.648064",
    "MEAN_MOTION": 15.71770695,
    "ECCENTRICITY": 0.000213,
    "INCLINATION": 51.6314,
    "RA_OF_ASC_NODE": 266.784,
    "ARG_OF_PERICENTER": 145.4356,
    "MEAN_ANOMALY": 214.6781,
    "EPHEMERIS_TYPE": 0,
    "CLASSIFICATION_TYPE": "U",
    "NORAD_CAT_ID": 51442,
    "ELEMENT_SET_NO": 999,
    "REV_AT_EPOCH": 3517,
    "BSTAR": 0.00070103,
    "MEAN_MOTION_DOT": 0.00093172,
    "MEAN_MOTION_DDOT": 0
},{
    "OBJECT_NAME": "PROGRESS-MS 19",
    "OBJECT_ID": "2022-014A",
    "EPOCH": "2022-09-08T12:16:01.138656",
    "MEAN_MOTION": 15.50098625,
    "ECCENTRICITY": 0.0002647,
    "INCLINATION": 51.6441,
    "RA_OF_ASC_NODE": 283.7868,
    "ARG_OF_PERICENTER": 207.1553,
    "MEAN_ANOMALY": 316.3696,
    "EPHEMERIS_TYPE": 0,
    "CLASSIFICATION_TYPE": "U",
    "NORAD_CAT_ID": 51660,
    "ELEMENT_SET_NO": 999,
    "REV_AT_EPOCH": 35810,
    "BSTAR": 0.00013918,
    "MEAN_MOTION_DOT": 7.523e-5,
    "MEAN_MOTION_DDOT": 0
},{
    "OBJECT_NAME": "SOYUZ-MS 21",
    "OBJECT_ID": "2022-028A",
    "EPOCH": "2022-09-08T12:16:01.138656",
    "MEAN_MOTION": 15.50098625,
    "ECCENTRICITY": 0.0002647,
    "INCLINATION": 51.6441,
    "RA_OF_ASC_NODE": 283.7868,
    "ARG_OF_PERICENTER": 207.1553,
    "MEAN_ANOMALY": 316.3696,
    "EPHEMERIS_TYPE": 0,
    "CLASSIFICATION_TYPE": "U",
    "NORAD_CAT_ID": 52086,
    "ELEMENT_SET_NO": 999,
    "REV_AT_EPOCH": 35810,
    "BSTAR": 0.00013918,
    "MEAN_MOTION_DOT": 7.523e-5,
    "MEAN_MOTION_DDOT": 0
}]
